TIANWANG 1C (TW-1C)     
1 40926U 15051B   17236.74110611  .00009041  00000-0  20280-3 0  9992
2 40926  97.2241 275.7889 0009362 282.1291 172.0832 15.43582816107496
TIANWANG 1B (TW-1B)     
1 40927U 15051C   17236.66631928  .00008691  00000-0  20249-3 0  9998
2 40927  97.2336 275.7012 0009332 294.8838 160.4763 15.42458596107427
TIANWANG 1A (TW-1A)     
1 40928U 15051D   17236.73901747  .00004136  00000-0  11802-3 0  9991
2 40928  97.2220 271.3207 0011243 318.3070 135.1501 15.36535873107226
LAPAN-A2 (IO-86)        
1 40931U 15052B   17236.46662652  .00000714  00000-0  10546-4 0  9998
2 40931   5.9988 105.8446 0012626 129.7603 230.3634 14.76537722103077
LQSAT                   
1 40958U 15057A   17236.72234314  .00000057  00000-0  16623-4 0  9993
2 40958  97.9742 310.8301 0017475 202.4577 157.5870 14.72978907101204
CHUBUSAT-2              
1 41338U 16012B   17236.77110523  .00000460  00000-0  29481-4 0  9992
2 41338  31.0042  36.6678 0013936  17.6457 342.4661 14.99777913 83294
CHUBUSAT-3              
1 41339U 16012C   17236.75654325  .00000457  00000-0  29073-4 0  9997
2 41339  31.0120  35.7949 0013911  24.2620 335.8664 14.99980542 83273
OUFTI-1                 
1 41458U 16025C   17236.60495952  .00003771  00000-0  20249-3 0  9993
2 41458  98.1775 278.0938 0174576  61.3251 300.5406 15.03408226 72868
E-ST@R-II               
1 41459U 16025D   17236.76649193  .00003045  00000-0  16409-3 0  9996
2 41459  98.1810 278.2053 0176419  61.1760 300.7044 15.03244952 72875
AAUSAT 4                
1 41460U 16025E   17236.65542508  .00004492  00000-0  24055-3 0  9991
2 41460  98.1738 278.2262 0167901  59.4096 302.3565 15.04216958 72889
NUSAT 1 (LO-87)         
1 41557U 16033B   17236.55209121  .00002359  00000-0  90910-4 0  9991
2 41557  97.4602 316.0662 0015695 123.1066 237.1681 15.27238313 68862
BEESAT-4                
1 41619U 16040W   17236.42062124  .00002516  00000-0  11660-3 0  9993
2 41619  97.4566 298.1368 0012028 181.8354 178.2840 15.20955030 52962
PRATHAM                 
1 41783U 16059A   17236.21948604  .00000088  00000-0  26674-4 0  9992
2 41783  98.1613 296.8685 0032527 308.9364  50.8940 14.62851732 48545
ALSAT 1N                
1 41789U 16059G   17236.76680176  .00000119  00000-0  31996-4 0  9993
2 41789  98.1616 298.0442 0027300 301.4721  58.3809 14.64066623 48644
NAYIF-1 (EO-88)         
1 42017U 17008BX  17236.56381834  .00002543  00000-0  11053-3 0  9994
2 42017  97.4892 297.8755 0006147 357.0489   3.0710 15.23197427 28891
LILACSAT-1              
1 42725U 98067ME  17236.56349088  .00018580  00000-0  26314-3 0  9993
2 42725  51.6397  56.5183 0006765 201.2728 158.7983 15.56510588 14142
MAX VALIER SAT          
1 42778U 17036P   17236.59760814  .00001628  00000-0  77621-4 0  9998
2 42778  97.4461 295.6156 0013720  34.8197 325.3934 15.20463969  9429
